OBJECT_NAME,OBJECT_ID,EPOCH,MEAN_MOTION,ECCENTRICITY,INCLINATION,RA_OF_ASC_NODE,ARG_OF_PERICENTER,MEAN_ANOMALY,EPHEMERIS_TYPE,CLASSIFICATION_TYPE,NORAD_CAT_ID,ELEMENT_SET_NO,REV_AT_EPOCH,BSTAR,MEAN_MOTION_DOT,MEAN_MOTION_DDOT
STARLINK-35163,2025-198R,2026-07-07T06:37:45.299136,15.34403486,.00010686,53.1593,75.2250,75.5753,284.5368,0,U,65507,999,4693,.14400098E-3,.4493E-4,0
STARLINK-35119,2025-198S,2026-07-07T01:40:30.917856,15.34404379,.00011747,53.1591,74.6552,47.5116,312.5985,0,U,65508,999,4692,.58039882E-3,.19287E-3,0
STARLINK-35168,2025-198T,2026-07-07T02:50:05.114400,15.34442529,.00013554,53.1582,74.2428,59.1220,300.9916,0,U,65509,999,4693,.74670798E-3,.24971E-3,0
STARLINK-35122,2025-198U,2026-07-06T23:06:08.638272,15.34425624,.00012807,53.1583,74.6892,99.6652,260.4495,0,U,65510,999,4691,.54036254E-3,.17939E-3,0
STARLINK-35124,2025-198V,2026-07-06T21:14:09.868416,15.34434991,.0001342,53.1584,74.9171,91.7683,268.3473,0,U,65511,999,4689,.60598014E-3,.20176E-3,0
STARLINK-35149,2025-198W,2026-07-06T22:05:40.516512,15.34434263,.00012894,53.1578,75.1392,97.6869,262.4280,0,U,65512,999,4690,.7259778E-3,.24258E-3,0
STARLINK-35019,2025-198X,2026-07-07T02:56:06.558432,15.34487880,.00015199,53.1558,74.2701,160.5126,199.5935,0,U,65513,999,4693,.11364821E-2,.38326E-3,0
STARLINK-35026,2025-198Y,2026-07-07T04:42:45.097056,15.34386353,.00014176,53.1592,75.4357,76.2570,283.8590,0,U,65514,999,4692,.63883598E-3,.2126E-3,0
STARLINK-35241,2025-198Z,2026-07-07T20:00:04.000032,15.33584026,.000117,53.1591,73.0119,86.9701,270.2680,0,U,65515,999,585,-.72521E-3,-.24173E-3,0
STARLINK-35216,2025-198AA,2026-07-06T22:57:52.800768,15.34427746,.00012806,53.1605,76.7818,81.1395,278.9753,0,U,65516,999,4688,.81659732E-3,.27339E-3,0
STARLINK-35228,2025-198AB,2026-07-07T02:07:39.448992,15.34400791,.00013376,53.1586,74.0525,93.8980,266.2176,0,U,65517,999,4693,.69316968E-3,.23116E-3,0
STARLINK-35232,2025-198AC,2026-07-06T22:35:57.094656,15.34413721,.00012516,53.1586,75.2667,64.8411,295.2722,0,U,65518,999,4690,.38288435E-3,.12587E-3,0
STARLINK-35164,2025-198AD,2026-07-07T01:34:27.789024,15.34440135,.0001322,53.1585,74.6163,87.0922,273.0232,0,U,65519,999,4692,.65848084E-3,.21965E-3,0
STARLINK-35112,2025-200A,2026-07-07T17:45:15.310656,15.10111136,.0004323,97.2861,256.3419,175.1526,184.9746,0,U,65520,999,4719,-.2991E-2,-.48448E-3,0
STARLINK-35187,2025-200B,2026-07-07T20:00:04.000032,15.10559556,.0001878,97.2850,256.4870,97.0588,177.0805,0,U,65521,999,582,-.31728E-2,-.5199E-3,0
STARLINK-35188,2025-200C,2026-07-07T18:28:48.175392,15.05643862,.0000941,97.2824,256.4575,106.0037,254.1295,0,U,65522,999,4720,.38176E-3,.5455E-4,0
STARLINK-35078,2025-200D,2026-07-07T20:00:04.000032,15.10772692,.0001443,97.2853,256.4496,77.6194,121.5254,0,U,65523,999,583,.1298E+0,.2398527E-1,0
STARLINK-35055,2025-200E,2026-07-07T20:00:04.000032,15.12429455,.0002609,97.2814,256.4336,79.8318,136.6212,0,U,65524,999,572,.4034E-3,.695E-4,0
STARLINK-35057,2025-200F,2026-07-07T20:00:04.000032,15.17488639,.0001397,97.2826,256.3820,80.0168,6.4430,0,U,65525,999,583,.12278E+0,.2724614E-1,0
STARLINK-34674,2025-200G,2026-07-07T18:40:45.017184,15.05660993,.0001355,97.2834,256.4457,91.9901,268.1482,0,U,65526,999,4721,.35342E-3,.5048E-4,0
STARLINK-35067,2025-200H,2026-07-07T20:00:04.000032,15.10583892,.0001649,97.2852,256.4297,101.8511,40.8593,0,U,65527,999,578,-.35516E-2,-.58178E-3,0
STARLINK-35063,2025-200J,2026-07-07T08:50:27.590496,15.05846747,.00036621,97.2833,256.0847,43.7101,316.4416,0,U,65528,999,4714,.43135266E-2,.63071E-3,0
STARLINK-35077,2025-200K,2026-07-07T20:00:04.000032,15.10579046,.0001746,97.2850,256.4275,95.9247,50.0623,0,U,65529,999,583,-.36842E-2,-.60321E-3,0
STARLINK-35152,2025-200L,2026-07-07T20:00:04.000032,15.10552499,.0002563,97.2852,256.4754,86.6370,159.8706,0,U,65530,999,577,-.32193E-2,-.52737E-3,0
STARLINK-35064,2025-200M,2026-07-07T20:00:04.000032,15.10567566,.0001801,97.2855,256.4627,88.4327,130.3475,0,U,65531,999,568,-.32981E-2,-.54036E-3,0
STARLINK-35170,2025-200N,2026-07-07T20:00:04.000032,15.10553747,.0001757,97.2845,256.5159,89.0085,247.6973,0,U,65532,999,582,-.30416E-2,-.49848E-3,0
STARLINK-35172,2025-200P,2026-07-07T20:00:04.000032,15.11544827,.0003787,97.2841,256.3897,131.3255,334.4652,0,U,65533,999,578,.11213E+0,.2086054E-1,0
STARLINK-35125,2025-200Q,2026-07-07T20:00:04.000032,15.13191729,.0004032,97.2831,256.3969,77.5540,11.3844,0,U,65534,999,558,.13762E+0,.2704825E-1,0
STARLINK-35133,2025-200R,2026-07-07T18:44:28.617792,15.06328802,.0002635,97.2838,256.4434,160.0180,200.1152,0,U,65535,999,4720,.20503E-1,.314887E-2,0
STARLINK-35044,2025-200S,2026-07-05T17:45:45.588672,15.05895926,.00030772,97.2819,254.4698,123.8260,236.3261,0,U,65536,999,4689,.48190058E-2,.70634E-3,0
STARLINK-35136,2025-200T,2026-07-07T20:00:04.000032,15.14186307,.000249,97.2798,256.4186,123.5757,49.5575,0,U,65537,999,578,.15054E+0,.3086824E-1,0
STARLINK-35144,2025-200U,2026-07-07T20:00:04.000032,15.10552069,.000227,97.2855,256.4259,108.1143,40.6159,0,U,65538,999,573,-.33875E-2,-.55467E-3,0
STARLINK-35110,2025-200V,2026-07-07T18:32:34.661760,15.06093944,.0002643,97.2834,256.4544,132.4751,227.6701,0,U,65539,999,4720,.12946E-1,.194208E-2,0
STARLINK-35052,2025-200W,2026-07-07T20:00:04.000032,15.10577539,.0002266,97.2845,256.4913,93.6423,198.7187,0,U,65540,999,572,-.29695E-2,-.4871E-3,0
STARLINK-35087,2025-200X,2026-07-07T20:00:04.000032,15.10571600,.0002169,97.2851,256.4768,90.4149,157.8414,0,U,65541,999,582,-.31254E-2,-.51236E-3,0
STARLINK-35100,2025-200Y,2026-07-07T20:00:04.000032,15.10044980,.0002775,97.2853,256.3894,90.7123,323.0670,0,U,65542,999,558,.14971E+0,.2698697E-1,0
STARLINK-35105,2025-200Z,2026-07-07T20:00:04.000032,15.10542041,.00016,97.2855,256.4864,98.0479,190.3596,0,U,65543,999,577,-.28001E-2,-.45904E-3,0
STARLINK-35267,2025-207A,2026-07-07T18:06:54.332064,15.05651596,.0001339,97.2816,255.1781,96.3781,263.7599,0,U,65592,999,4631,.43043E-3,.616E-4,0
STARLINK-35269,2025-207B,2026-07-07T17:19:01.919136,15.05661173,.0001366,97.2839,255.2268,109.1967,250.9409,0,U,65593,999,4631,.29373E-3,.4185E-4,0
STARLINK-35191,2025-207C,2026-07-07T17:42:59.014656,15.05652532,.0001246,97.2845,255.2010,130.8399,229.2936,0,U,65594,999,4615,.41662E-3,.596E-4,0
STARLINK-35261,2025-207D,2026-07-07T18:30:50.319936,15.05644696,.0001862,97.2825,255.3121,116.8403,243.3015,0,U,65595,999,4633,.3838E-3,.5485E-4,0
STARLINK-35253,2025-207E,2026-07-07T17:54:55.572192,15.05661224,.0001526,97.2839,255.1904,114.6952,245.4434,0,U,65596,999,4611,.37084E-3,.53E-4,0
STARLINK-35263,2025-207F,2026-07-07T17:30:59.806368,15.05665059,.0001397,97.2845,255.2150,111.9647,248.1729,0,U,65597,999,4632,.39706E-3,.5679E-4,0
STARLINK-35248,2025-207G,2026-07-07T18:42:46.867968,15.05662990,.0002129,97.2836,255.3007,111.4625,248.6830,0,U,65598,999,4633,.33774E-3,.4822E-4,0
STARLINK-35245,2025-207H,2026-07-07T18:18:53.039232,15.05648757,.000143,97.2826,255.3248,99.0684,261.0706,0,U,65599,999,4633,.42175E-3,.6034E-4,0
STARLINK-35229,2025-207J,2026-07-07T18:02:53.250144,15.05657453,.0001357,97.2823,255.1824,108.3617,251.7759,0,U,65600,999,4632,.15844E-3,.2231E-4,0
STARLINK-35234,2025-207K,2026-07-07T17:50:56.196672,15.05661531,.0000679,97.2840,255.1953,177.7744,182.3487,0,U,65601,999,4632,.39374E-3,.5631E-4,0
STARLINK-35255,2025-207L,2026-07-07T17:27:00.599328,15.05664985,.000134,97.2846,255.2194,134.3854,225.7483,0,U,65602,999,4632,.38932E-3,.5568E-4,0
STARLINK-35250,2025-207M,2026-07-07T17:03:06.552864,15.05672419,.0001611,97.2825,255.2417,95.8948,264.2463,0,U,65603,999,4632,.60009E-3,.8618E-4,0
STARLINK-35251,2025-207N,2026-07-07T17:34:58.538208,15.05657108,.0001564,97.2831,255.2140,190.3457,169.7739,0,U,65604,999,4632,.21252E-3,.3012E-4,0
STARLINK-35171,2025-207P,2026-07-07T17:15:02.832192,15.05667693,.0001165,97.2838,255.2305,93.9029,266.2331,0,U,65605,999,4616,.40206E-3,.5752E-4,0
STARLINK-35195,2025-207Q,2026-07-07T18:14:53.630016,15.05656122,.0001179,97.2823,255.3280,118.5546,241.5800,0,U,65606,999,4633,.46063E-3,.6597E-4,0
STARLINK-35156,2025-207R,2026-07-07T18:22:52.091616,15.05646319,.0001559,97.2828,255.3201,84.5434,275.5972,0,U,65607,999,4633,.40644E-3,.5812E-4,0
STARLINK-35185,2025-207S,2026-07-07T17:23:00.959424,15.05661503,.0000818,97.2843,255.2230,110.1648,249.9668,0,U,65608,999,4632,.26543E-3,.3777E-4,0
STARLINK-35053,2025-207T,2026-07-07T18:34:48.783936,15.05662416,.0001845,97.2830,255.3086,112.2815,247.8608,0,U,65609,999,4617,.37175E-3,.5313E-4,0
STARLINK-35178,2025-207U,2026-07-07T17:38:59.618400,15.05657111,.0001575,97.2844,255.2074,101.5849,258.5556,0,U,65610,999,4632,.41768E-3,.5976E-4,0
STARLINK-35186,2025-207V,2026-07-07T18:10:53.444928,15.05651694,.000064,97.2817,255.1773,133.6220,226.5060,0,U,65611,999,4632,.37985E-3,.5429E-4,0
STARLINK-35154,2025-207W,2026-07-07T18:26:49.205184,15.05677841,.000097,97.2841,255.3176,105.4073,254.7261,0,U,65612,999,4617,.59921E-3,.8606E-4,0
STARLINK-35162,2025-207X,2026-07-07T17:11:04.102944,15.05652220,.0000795,97.2836,255.2346,93.0063,267.1256,0,U,65613,999,4632,.35742E-3,.5105E-4,0
STARLINK-35206,2025-207Y,2026-07-07T17:46:58.391904,15.05653997,.0000973,97.2833,255.1991,83.2130,276.9208,0,U,65614,999,4621,.46466E-3,.6655E-4,0
STARLINK-35174,2025-207Z,2026-07-07T17:58:55.829856,15.05652829,.000073,97.2816,255.1864,87.1609,272.9702,0,U,65615,999,4632,.41183E-3,.5891E-4,0
STARLINK-35247,2025-210A,2026-07-07T04:17:01.765824,15.30229681,.0001129,53.1598,112.1912,86.8596,273.2534,0,U,65622,999,4602,.88277743E-3,.25901E-3,0
STARLINK-35239,2025-210B,2026-07-07T04:52:58.016928,15.34399265,.0001146,53.1579,109.5130,38.0361,322.0722,0,U,65623,999,4606,.80683823E-3,.26982E-3,0
STARLINK-35151,2025-210C,2026-07-07T04:49:13.999008,15.34463677,.00011787,53.1574,108.0680,105.3910,254.7223,0,U,65624,999,4600,.65803873E-3,.21967E-3,0
STARLINK-35153,2025-210D,2026-07-06T22:28:42.616704,15.34421887,.00013562,53.1580,110.6882,97.2537,262.8620,0,U,65625,999,4594,.58484461E-3,.19449E-3,0
